SL-16 R/B               
1 23405U 94077B   26160.34770585 -.00000259  00000+0 -10795-3 0  9997
2 23405  70.9805 159.6557 0002657 332.2037  27.8943 14.15572918629208
ARIANE 40+ R/B          
1 23561U 95021B   26160.47068271  .00000226  00000+0  85755-4 0  9997
2 23561  98.4411 230.6569 0005952 218.4661 156.2932 14.39829123632456
SL-16 R/B               
1 23705U 95058B   26160.50046106 -.00000005  00000+0  21868-4 0  9995
2 23705  71.0214 347.4979 0013435 330.9060  29.1312 14.15505194580842
SL-16 R/B               
1 24298U 96051B   26160.52447398  .00000125  00000+0  94053-4 0  9995
2 24298  70.7635 340.8665 0014805 348.5471  11.5309 14.12443388534613
ORBVIEW 2 (SEASTAR)     
1 24883U 97037A   26160.35305048  .00000225  00000+0  94249-4 0  9994
2 24883  98.8682 327.1554 0002953 132.3538 227.7897 14.35549463521621
SL-16 R/B               
1 25400U 98043G   26160.50472756  .00000047  00000+0  38543-4 0  9993
2 25400  98.8360 114.5980 0010895 106.3790 253.8588 14.26067373452070
SL-16 R/B               
1 25407U 98045B   26160.53697168 -.00000036  00000+0  61378-5 0  9993
2 25407  71.0122 348.4188 0009520 251.0993 108.9098 14.16204921440108
ISS (ZARYA)             
1 25544U 98067A   26160.51346515  .00007341  00000+0  13794-3 0  9996
2 25544  51.6332 338.0748 0006877 150.8507 209.2867 15.49683556570568
CZ-4B R/B               
1 25732U 99025C   26160.36897609  .00000048  00000+0  43734-4 0  9993
2 25732  98.6486 202.4040 0038238  81.4937 294.4084 14.18282123401165
OKEAN-O                 
1 25860U 99039A   26160.43980202  .00000534  00000+0  76681-4 0  9997
2 25860  97.9317 219.3263 0001798  77.6198 282.5216 14.80457985447965
SL-16 R/B               
1 25861U 99039B   26160.40126834  .00000425  00000+0  60589-4 0  9997
2 25861  97.9841 219.2863 0013933 324.2346  35.7933 14.81837427450448
DELTA 2 R/B             
1 25876U 99041E   26160.53117096  .00000752  00000+0  15879-3 0  9994
2 25876  51.7661 294.3790 0500909 259.3829  95.0330 14.12002056376008
HELIOS 1B               
1 25977U 99064A   26160.44541402  .00001343  00000+0  15275-3 0  9990
2 25977  98.1622  65.3610 0002401 102.1923 257.9562 14.87986409698900
TERRA                   
1 25994U 99068A   26160.49316787  .00000338  00000+0  77728-4 0  9999
2 25994  97.9459 210.3443 0001015 224.6888 242.2888 14.61096977408484
SL-16 R/B               
1 26070U 00006B   26160.57621050 -.00000258  00000+0 -10685-3 0  9991
2 26070  71.0031 264.6283 0015127  34.9300 325.2812 14.15836155361568
TITAN 4B R/B            
1 26474U 00047B   26160.50991809  .00002786  00000+0  17467-3 0  9990
2 26474  67.9872 142.1823 0045583 294.9147  64.7269 15.10152417406771
ENVISAT                 
1 27386U 02009A   26160.62343708  .00000082  00000+0  40431-4 0  9990
2 27386  98.3831 112.1107 0001330  90.2317  87.7528 14.39063093272390
IDEFIX & ARIANE 42P R/B 
1 27422U 02021B   26160.43867550  .00000191  00000+0  89173-4 0  9997
2 27422  98.5942  98.0058 0010602 279.3660  80.6324 14.31078527257148
AQUA                    
1 27424U 02022A   26160.60612259  .00000745  00000+0  15804-3 0  9997
2 27424  98.4273 129.7377 0001408  54.0068  65.6699 14.62146686282160
CZ-4B R/B               
1 27432U 02024C   26160.38021662  .00000030  00000+0  38016-4 0  9993
2 27432  98.8702 213.2507 0051080 121.9752 254.3883 14.14563239242206
MIDORI II (ADEOS-II)    
1 27597U 02056A   26160.50788209  .00000243  00000+0  11315-3 0  9999
2 27597  98.7874 119.7026 0002231  87.4986 272.6451 14.29345465223413
H-2A R/B                
1 27601U 02056E   26160.48479339  .00000179  00000+0  77625-4 0  9998
2 27601  98.3309 117.4403 0068945 247.8747 223.0025 14.33818833227266
CZ-4B R/B               
1 28059U 03049C   26160.52969419  .00000294  00000+0  79019-4 0  9994
2 28059  98.6896 159.0714 0047228 312.4912  47.2297 14.55095101199959
CZ-2C R/B               
1 28222U 04012C   26160.10779161  .00082418  00000+0  49560-3 0  9999
2 28222  97.7081 234.8409 0008757 319.5397  40.5216 15.77442882218629
SL-16 R/B               
1 28353U 04021B   26160.38296838 -.00000255  00000+0 -10770-3 0  9991
2 28353  71.0020  40.0683 0007474 264.0490  95.9781 14.14611754135801
CZ-4B R/B               
1 28415U 04035C   26160.35274352  .00007098  00000+0  23975-3 0  9990
2 28415  97.3375 193.5150 0030869   6.3474 353.8152 15.30510841193929
CZ-2C R/B               
1 28480U 04046B   26160.47865225  .00000060  00000+0  37908-4 0  9996
2 28480  98.1950  69.7408 0138171 243.2180 115.4812 14.27024927121599
ARIANE 5 R/B            
1 28499U 04049H   26160.45117761  .00000687  00000+0  81725-4 0  9993
2 28499  98.2718 332.4059 0084936  54.2640 306.6437 14.85438153159417
CZ-2D R/B               
1 28738U 05024B   26160.50298324  .00051864  00000+0  45437-3 0  9996
2 28738  97.3494 179.5527 0004640  70.4712 289.7050 15.68719452154130
ALOS (DAICHI)           
1 28931U 06002A   26160.60325733  .00000990  00000+0  17319-3 0  9996
2 28931  98.1320 116.1945 0001737  60.6985 299.4394 14.70035069 86983
